{
  "type": "FeatureCollection",
  "features": [
    {
      "type": "Feature",
      "properties": {
        "route_id": "R-STATION-01",
        "name": "Kopargaon MSRTC Bus Stand to Kopargaon Railway Station"
      },
      "geometry": {
        "type": "LineString",
        "coordinates": [
          [74.478773, 19.884225],
          [74.479936, 19.886319],
          [74.481100, 19.888414],
          [74.482263, 19.890508],
          [74.484267, 19.893249],
          [74.486270, 19.895990],
          [74.488274, 19.898731],
          [74.490278, 19.901472],
          [74.493611, 19.902013],
          [74.496944, 19.902554],
          [74.500277, 19.903094],
          [74.503610, 19.903635]
        ]
      }
    }
  ]
}
