{
  "type": "FeatureCollection",
  "features": [
    {
      "type": "Feature",
      "properties": {
        "route_id": "R-CAMPUS-01",
        "name": "Kopargaon Bus Stand to Sanjivani University",
        "source": "OpenStreetMap OSRM routing"
      },
      "geometry": {
        "coordinates": [
          [
            74.479192,
            19.884188
          ],
          [
            74.479345,
            19.885733
          ],
          [
            74.479362,
            19.886093
          ],
          [
            74.479363,
            19.886133
          ],
          [
            74.479384,
            19.886581
          ],
          [
            74.479408,
            19.887104
          ],
          [
            74.479462,
            19.887581
          ],
          [
            74.479609,
            19.887983
          ],
          [
            74.48153,
            19.890071
          ],
          [
            74.482214,
            19.890874
          ],
          [
            74.482274,
            19.890944
          ],
          [
            74.484625,
            19.89367
          ],
          [
            74.485526,
            19.894723
          ],
          [
            74.48598,
            19.894929
          ],
          [
            74.487171,
            19.895452
          ],
          [
            74.49145,
            19.897331
          ],
          [
            74.492315,
            19.897712
          ],
          [
            74.493091,
            19.898117
          ],
          [
            74.49357,
            19.898456
          ],
          [
            74.494319,
            19.899359
          ],
          [
            74.494702,
            19.899822
          ],
          [
            74.493727,
            19.899806
          ],
          [
            74.49333,
            19.899887
          ],
          [
            74.492837,
            19.900245
          ],
          [
            74.492665,
            19.900532
          ],
          [
            74.492413,
            19.901133
          ],
          [
            74.492378,
            19.901724
          ]
        ],
        "type": "LineString"
      }
    }
  ]
}
