{
  "type": "FeatureCollection",
  "features": [
    {
      "type": "Feature",
      "properties": {
        "route_id": "R-STATION-02",
        "name": "Sanjivani University to Kopargaon Railway Station",
        "source": "OpenStreetMap OSRM routing"
      },
      "geometry": {
        "coordinates": [
          [
            74.492378,
            19.901724
          ],
          [
            74.492413,
            19.901133
          ],
          [
            74.492665,
            19.900532
          ],
          [
            74.492837,
            19.900245
          ],
          [
            74.49333,
            19.899887
          ],
          [
            74.493727,
            19.899806
          ],
          [
            74.494702,
            19.899822
          ],
          [
            74.495189,
            19.900258
          ],
          [
            74.495244,
            19.900307
          ],
          [
            74.496295,
            19.900801
          ],
          [
            74.496955,
            19.901114
          ],
          [
            74.499152,
            19.903253
          ],
          [
            74.499365,
            19.903514
          ],
          [
            74.499566,
            19.903619
          ],
          [
            74.499786,
            19.903813
          ],
          [
            74.502538,
            19.905049
          ],
          [
            74.502879,
            19.904529
          ],
          [
            74.503182,
            19.903694
          ]
        ],
        "type": "LineString"
      }
    }
  ]
}
